KUIPER-00008            
1 63724U 25088A   25288.53691399 -.00008003  00000+0 -62337-3 0  9991
2 63724  51.8927  28.7941 0010885 334.3036  25.7393 14.99488569 26281
KUIPER-00009            
1 63725U 25088B   25288.66094381  .00003269  00000+0  45612-3 0  9998
2 63725  51.9026  27.9197 0012364 342.3730  17.6802 14.80055434 26300
KUIPER-00010            
1 63726U 25088C   25289.00002315 -.00090885  00000+0 -86501-2 0  9997
2 63726  51.8917   3.3777 0011663  27.4463 100.5396 14.93364124  5014
KUIPER-00011            
1 63727U 25088D   25288.94927863 -.00043300  00000+0 -56655-2 0  9991
2 63727  51.9012  10.7023 0013292 358.2536   1.8378 14.80023317 26326
KUIPER-00012            
1 63728U 25088E   25288.91517622 -.00001993  00000+0 -73362-4 0  9995
2 63728  51.8743   2.0907 0010782 352.1532   7.9278 15.21198950 26397
KUIPER-00013            
1 63729U 25088F   25288.72783654  .00000136  00000+0  47104-4 0  9996
2 63729  51.9041  29.0954 0007345 267.7891  92.2231 14.79827494 26100
KUIPER-00014            
1 63730U 25088G   25288.59105653 -.00000775  00000+0 -72263-4 0  9995
2 63730  51.9034  30.6668 0007726 334.9516  25.1071 14.79951778 25882
KUIPER-00015            
1 63731U 25088H   25288.70003720  .00003809  00000+0  51042-3 0  9991
2 63731  51.8987  41.9004 0009516 319.9195  40.1065 14.81405189 26191
